{
  "type": "FeatureCollection",
  "features": [
    {
      "type": "Feature",
      "properties": {
        "norad_id": 33860,
        "name": "IRIDIUM 33 DEB",
        "group": "iridium-33-debris",
        "lat": -43.47040312439435,
        "lon": 27.52922203004678,
        "alt_km": 674.6629979502841,
        "timestamp": "2025-12-04T07:39:36.516936+00:00",
        "meta_object_name": "IRIDIUM 33 DEB",
        "meta_object_id": "1997-051AD",
        "meta_epoch": "2025-12-03T10:38:45.202272",
        "meta_mean_motion": 14.67161247,
        "meta_eccentricity": 0.0008596,
        "meta_inclination": 86.385,
        "meta_ra_of_asc_node": 31.3522,
        "meta_arg_of_pericenter": 28.3403,
        "meta_mean_anomaly": 346.5569,
        "meta_ephemeris_type": 0,
        "meta_classification_type": "U",
        "meta_norad_cat_id": 33860,
        "meta_element_set_no": 999,
        "meta_rev_at_epoch": 88586,
        "meta_bstar": 0.0017679929,
        "meta_mean_motion_dot": 9.972e-05,
        "meta_mean_motion_ddot": 0,
        "tle_line1": "1 33860U 97051AD  25337.44357873  .00009972  00000+0  17680-2 0  9993",
        "tle_line2": "2 33860  86.3850  31.3522 0008596  28.3403 346.5569 14.67161247885868"
      },
      "geometry": {
        "type": "Point",
        "coordinates": [
          27.52922203004678,
          -43.47040312439435
        ]
      }
    },
    {
      "type": "Feature",
      "properties": {
        "norad_id": 33862,
        "name": "IRIDIUM 33 DEB",
        "group": "iridium-33-debris",
        "lat": -71.09238800634442,
        "lon": 30.68172596436911,
        "alt_km": 708.2096879979372,
        "timestamp": "2025-12-04T07:39:36.516946+00:00",
        "meta_object_name": "IRIDIUM 33 DEB",
        "meta_object_id": "1997-051AF",
        "meta_epoch": "2025-12-03T16:12:45.413568",
        "meta_mean_motion": 14.69222716,
        "meta_eccentricity": 0.00540747,
        "meta_inclination": 86.4101,
        "meta_ra_of_asc_node": 41.5264,
        "meta_arg_of_pericenter": 99.4466,
        "meta_mean_anomaly": 27.1192,
        "meta_ephemeris_type": 0,
        "meta_classification_type": "U",
        "meta_norad_cat_id": 33862,
        "meta_element_set_no": 999,
        "meta_rev_at_epoch": 88690,
        "meta_bstar": 0.0020462598,
        "meta_mean_motion_dot": 0.0001236,
        "meta_mean_motion_ddot": 0,
        "tle_line1": "1 33862U 97051AF  25337.67552562  .00012360  00000+0  20463-2 0  9990",
        "tle_line2": "2 33862  86.4101  41.5264 0054074  99.4466  27.1192 14.69222716886907"
      },
      "geometry": {
        "type": "Point",
        "coordinates": [
          30.68172596436911,
          -71.09238800634442
        ]
      }
    },
    {
      "type": "Feature",
      "properties": {
        "norad_id": 33866,
        "name": "IRIDIUM 33 DEB",
        "group": "iridium-33-debris",
        "lat": -70.25516028778641,
        "lon": -73.01556662654345,
        "alt_km": 776.4229248768352,
        "timestamp": "2025-12-04T07:39:36.516957+00:00",
        "meta_object_name": "IRIDIUM 33 DEB",
        "meta_object_id": "1997-051AK",
        "meta_epoch": "2025-12-03T08:50:48.901920",
        "meta_mean_motion": 14.25219287,
        "meta_eccentricity": 0.0113711,
        "meta_inclination": 86.2997,
        "meta_ra_of_asc_node": 96.9997,
        "meta_arg_of_pericenter": 191.2792,
        "meta_mean_anomaly": 224.088,
        "meta_ephemeris_type": 0,
        "meta_classification_type": "U",
        "meta_norad_cat_id": 33866,
        "meta_element_set_no": 999,
        "meta_rev_at_epoch": 86677,
        "meta_bstar": 0.001023,
        "meta_mean_motion_dot": 2.59e-05,
        "meta_mean_motion_ddot": 0,
        "tle_line1": "1 33866U 97051AK  25337.36862155  .00002590  00000+0  10230-2 0  9997",
        "tle_line2": "2 33866  86.2997  96.9997 0113711 191.2792 224.0880 14.25219287866772"
      },
      "geometry": {
        "type": "Point",
        "coordinates": [
          -73.01556662654345,
          -70.25516028778641
        ]
      }
    },
    {
      "type": "Feature",
      "properties": {
        "norad_id": 33867,
        "name": "IRIDIUM 33 DEB",
        "group": "iridium-33-debris",
        "lat": 41.07195826099005,
        "lon": 171.25927466981102,
        "alt_km": 393.63568068413497,
        "timestamp": "2025-12-04T07:39:36.516967+00:00",
        "meta_object_name": "IRIDIUM 33 DEB",
        "meta_object_id": "1997-051AL",
        "meta_epoch": "2025-12-03T12:31:28.163136",
        "meta_mean_motion": 15.53938073,
        "meta_eccentricity": 0.00122374,
        "meta_inclination": 86.3625,
        "meta_ra_of_asc_node": 354.8433,
        "meta_arg_of_pericenter": 99.3235,
        "meta_mean_anomaly": 260.9411,
        "meta_ephemeris_type": 0,
        "meta_classification_type": "U",
        "meta_norad_cat_id": 33867,
        "meta_element_set_no": 999,
        "meta_rev_at_epoch": 89367,
        "meta_bstar": 0.0078630692,
        "meta_mean_motion_dot": 0.00542495,
        "meta_mean_motion_ddot": 0,
        "tle_line1": "1 33867U 97051AL  25337.52185374  .00542495  00000+0  78631-2 0  9999",
        "tle_line2": "2 33867  86.3625 354.8433 0012237  99.3235 260.9411 15.53938073893675"
      },
      "geometry": {
        "type": "Point",
        "coordinates": [
          171.25927466981102,
          41.07195826099005
        ]
      }
    },
    {
      "type": "Feature",
      "properties": {
        "norad_id": 33870,
        "name": "IRIDIUM 33 DEB",
        "group": "iridium-33-debris",
        "lat": 84.23680656864626,
        "lon": 100.76974792612745,
        "alt_km": 739.461147426201,
        "timestamp": "2025-12-04T07:39:36.516977+00:00",
        "meta_object_name": "IRIDIUM 33 DEB",
        "meta_object_id": "1997-051AP",
        "meta_epoch": "2025-12-03T16:55:20.809344",
        "meta_mean_motion": 14.45765696,
        "meta_eccentricity": 0.00205196,
        "meta_inclination": 86.3759,
        "meta_ra_of_asc_node": 62.133,
        "meta_arg_of_pericenter": 208.1182,
        "meta_mean_anomaly": 283.557,
        "meta_ephemeris_type": 0,
        "meta_classification_type": "U",
        "meta_norad_cat_id": 33870,
        "meta_element_set_no": 999,
        "meta_rev_at_epoch": 88006,
        "meta_bstar": 0.0013399091,
        "meta_mean_motion_dot": 4.78e-05,
        "meta_mean_motion_ddot": 0,
        "tle_line1": "1 33870U 97051AP  25337.70510196  .00004780  00000+0  13399-2 0  9997",
        "tle_line2": "2 33870  86.3759  62.1330 0020519 208.1182 283.5570 14.45765696880060"
      },
      "geometry": {
        "type": "Point",
        "coordinates": [
          100.76974792612745,
          84.23680656864626
        ]
      }
    },
    {
      "type": "Feature",
      "properties": {
        "norad_id": 33881,
        "name": "IRIDIUM 33 DEB",
        "group": "iridium-33-debris",
        "lat": -7.777213439341193,
        "lon": 109.90519482301897,
        "alt_km": 746.7695269674587,
        "timestamp": "2025-12-04T07:39:36.516987+00:00",
        "meta_object_name": "IRIDIUM 33 DEB",
        "meta_object_id": "1997-051BA",
        "meta_epoch": "2025-12-03T08:52:49.327968",
        "meta_mean_motion": 14.56290168,
        "meta_eccentricity": 0.0061157,
        "meta_inclination": 86.3865,
        "meta_ra_of_asc_node": 110.812,
        "meta_arg_of_pericenter": 205.0667,
        "meta_mean_anomaly": 213.9917,
        "meta_ephemeris_type": 0,
        "meta_classification_type": "U",
        "meta_norad_cat_id": 33881,
        "meta_element_set_no": 999,
        "meta_rev_at_epoch": 87364,
        "meta_bstar": 0.002603,
        "meta_mean_motion_dot": 0.00011848,
        "meta_mean_motion_ddot": 0,
        "tle_line1": "1 33881U 97051BA  25337.37001537  .00011848  00000+0  26030-2 0  9995",
        "tle_line2": "2 33881  86.3865 110.8120 0061157 205.0667 213.9917 14.56290168873642"
      },
      "geometry": {
        "type": "Point",
        "coordinates": [
          109.90519482301897,
          -7.777213439341193
        ]
      }
    },
    {
      "type": "Feature",
      "properties": {
        "norad_id": 33884,
        "name": "IRIDIUM 33 DEB",
        "group": "iridium-33-debris",
        "lat": 27.40091781768192,
        "lon": 15.505319289552125,
        "alt_km": 630.9847314039243,
        "timestamp": "2025-12-04T07:39:36.516996+00:00",
        "meta_object_name": "IRIDIUM 33 DEB",
        "meta_object_id": "1997-051BD",
        "meta_epoch": "2025-12-03T02:24:03.793824",
        "meta_mean_motion": 14.77130142,
        "meta_eccentricity": 0.00106894,
        "meta_inclination": 86.3701,
        "meta_ra_of_asc_node": 14.1694,
        "meta_arg_of_pericenter": 359.2537,
        "meta_mean_anomaly": 29.5165,
        "meta_ephemeris_type": 0,
        "meta_classification_type": "U",
        "meta_norad_cat_id": 33884,
        "meta_element_set_no": 999,
        "meta_rev_at_epoch": 88705,
        "meta_bstar": 0.0017255958,
        "meta_mean_motion_dot": 0.0001224,
        "meta_mean_motion_ddot": 0,
        "tle_line1": "1 33884U 97051BD  25337.10004391  .00012240  00000+0  17256-2 0  9997",
        "tle_line2": "2 33884  86.3701  14.1694 0010689 359.2537  29.5165 14.77130142887052"
      },
      "geometry": {
        "type": "Point",
        "coordinates": [
          15.505319289552125,
          27.40091781768192
        ]
      }
    }
  ]
}